NORAD_CAT_ID,OBJECT_NAME,OBJECT_TYPE,EPOCH,MEAN_MOTION,ECCENTRICITY,INCLINATION,RA_OF_ASC_NODE,ARG_OF_PERICENTER,MEAN_ANOMALY,BSTAR,MEAN_MOTION_DOT,MEAN_MOTION_DDOT,TLE_LINE0,TLE_LINE1,TLE_LINE2,SEMIMAJOR_AXIS,PERIOD,APOGEE,PERIGEE,DECAYED
51979.0,STARLINK-3656,PAYLOAD,2023-09-27 21:52:45,15.0884518,0.000129,53.2163,91.4456,87.2785,272.8354,0.00018731,2.695e-05,0.0,0 STARLINK-3656,1 51979U 22025Z   23270.91163974  .00002695  00000-0  18731-3 0  9991,2 51979  53.2163  91.4456 0001290  87.2785 272.8354 15.08845180 87243,6917.865,95.437,540.622,538.837,0.0
51979.0,STARLINK-3656,PAYLOAD,2023-09-28 12:11:14,15.08839871,0.0001486,53.2169,88.7675,91.6863,268.4299,0.00014757,2.061e-05,0.0,0 STARLINK-3656,1 51979U 22025Z   23271.50780350  .00002061  00000-0  14757-3 0  9991,2 51979  53.2169  88.7675 0001486  91.6863 268.4299 15.08839871 87333,6917.881,95.438,540.774,538.718,0.0
51979.0,STARLINK-3656,PAYLOAD,2023-09-28 18:32:46,15.08843752,0.0001374,53.2166,87.5792,93.0382,267.0767,0.00018048,2.586e-05,0.0,0 STARLINK-3656,1 51979U 22025Z   23271.77276114  .00002586  00000-0  18048-3 0  9997,2 51979  53.2166  87.5792 0001374  93.0382 267.0767 15.08843752 86264,6917.869,95.437,540.684,538.783,0.0
51979.0,STARLINK-3656,PAYLOAD,2023-09-29 12:02:01,15.08840597,0.0001278,53.2161,84.3115,77.7697,282.3438,-8.8979e-06,-4.29e-06,0.0,0 STARLINK-3656,1 51979U 22025Z   23272.50140410 -.00000429  00000-0 -88979-5 0  9996,2 51979  53.2161  84.3115 0001278  77.7697 282.3438 15.08840597 86375,6917.879,95.438,540.628,538.859,0.0
51979.0,STARLINK-3656,PAYLOAD,2023-09-29 15:12:47,15.08840369,0.0001311,53.2161,83.7155,89.3226,270.7916,9.6851e-06,-1.34e-06,0.0,0 STARLINK-3656,1 51979U 22025Z   23272.63388357 -.00000134  00000-0  96851-5 0  9994,2 51979  53.2161  83.7155 0001311  89.3226 270.7916 15.08840369 87502,6917.879,95.438,540.651,538.837,0.0
51979.0,STARLINK-3656,PAYLOAD,2023-09-29 23:09:45,15.08816261,0.0001487,53.2173,82.2282,92.0841,268.0321,-0.00016111,-2.849e-05,0.0,0 STARLINK-3656,1 51979U 22025Z   23272.96510776 -.00002849  00000-0 -16111-3 0  9997,2 51979  53.2173  82.2282 0001487  92.0841 268.0321 15.08816261 87557,6917.953,95.439,540.847,538.789,0.0
51979.0,STARLINK-3656,PAYLOAD,2023-09-30 18:14:22,15.08838556,0.0001322,53.2177,78.6609,77.1493,282.9646,8.1089e-05,1.003e-05,0.0,0 STARLINK-3656,1 51979U 22025Z   23273.75997752  .00001003  00000-0  81089-4 0  9994,2 51979  53.2177  78.6609 0001322  77.1493 282.9646 15.08838556 87677,6917.885,95.438,540.664,538.835,0.0
51979.0,STARLINK-3656,PAYLOAD,2023-10-01 03:46:40,15.08846076,0.0001601,53.2201,76.8781,95.6799,264.4376,0.00019749,2.857e-05,0.0,0 STARLINK-3656,1 51979U 22025Z   23274.15741149  .00002857  00000-0  19749-3 0  9997,2 51979  53.2201  76.8781 0001601  95.6799 264.4376 15.08846076 87738,6917.862,95.437,540.834,538.619,0.0
51979.0,STARLINK-3656,PAYLOAD,2023-10-01 18:05:07,15.08867812,0.0001353,53.2171,74.199,76.9843,283.13,0.00056871,8.781e-05,0.0,0 STARLINK-3656,1 51979U 22025Z   23274.75356233  .00008781  00000-0  56871-3 0  9998,2 51979  53.2171  74.1990 0001353  76.9843 283.1300 15.08867812 87829,6917.795,95.436,540.596,538.724,0.0
51979.0,STARLINK-3656,PAYLOAD,2023-10-02 03:37:26,15.08856803,0.0001422,53.2175,72.4149,86.7793,273.3362,0.00041651,6.35e-05,0.0,0 STARLINK-3656,1 51979U 22025Z   23275.15100538  .00006350  00000-0  41651-3 0  9998,2 51979  53.2175  72.4149 0001422  86.7793 273.3362 15.08856803 87883,6917.829,95.436,540.678,538.71,0.0
51979.0,STARLINK-3656,PAYLOAD,2023-10-02 19:31:18,15.08848549,0.0001809,53.2171,69.4418,85.839,274.2809,0.00033036,4.975e-05,0.0,0 STARLINK-3656,1 51979U 22025Z   23275.81340381  .00004975  00000-0  33036-3 0  9992,2 51979  53.2171  69.4418 0001809  85.8390 274.2809 15.08848549 87981,6917.854,95.437,540.971,538.468,0.0
51979.0,STARLINK-3656,PAYLOAD,2023-10-03 03:28:14,15.08839212,0.0002195,53.2171,67.9554,83.6013,276.523,0.00097145,0.00015206,0.0,0 STARLINK-3656,1 51979U 22025Z   23276.14461068  .00015206  00000-0  97145-3 0  9995,2 51979  53.2171  67.9554 0002195  83.6013 276.5230 15.08839212 88039,6917.883,95.438,541.266,538.229,0.0
51979.0,STARLINK-3656,PAYLOAD,2023-10-03 14:35:56,15.08848882,0.0001505,53.2163,65.874,91.3533,268.7632,0.00093353,0.00014604,0.0,0 STARLINK-3656,1 51979U 22025Z   23276.60828803  .00014604  00000-0  93353-3 0  9998,2 51979  53.2163  65.8740 0001505  91.3533 268.7632 15.08848882 86996,6917.853,95.437,540.759,538.677,0.0
51979.0,STARLINK-3656,PAYLOAD,2023-10-03 17:46:42,15.08854522,0.0001852,53.2168,65.2796,80.9769,279.1432,0.00159,0.00025118,0.0,0 STARLINK-3656,1 51979U 22025Z   23276.74076840  .00025118  00000-0  15900-2 0  9992,2 51979  53.2168  65.2796 0001852  80.9769 279.1432 15.08854522 87012,6917.836,95.437,540.982,538.42,0.0
51979.0,STARLINK-3656,PAYLOAD,2023-10-04 09:40:33,15.08848713,0.0001577,53.2171,62.305,86.1347,273.9825,0.0010523,0.00016503,0.0,0 STARLINK-3656,1 51979U 22025Z   23277.40316725  .00016503  00000-0  10523-2 0  9999,2 51979  53.2171  62.3050 0001577  86.1347 273.9825 15.08848713 88228,6917.854,95.437,540.81,538.628,0.0
51979.0,STARLINK-3656,PAYLOAD,2023-10-04 14:26:42,15.08863572,0.0001882,53.2164,61.4138,81.3741,278.7465,0.0018431,0.00029186,0.0,0 STARLINK-3656,1 51979U 22025Z   23277.60188508  .00029186  00000-0  18431-2 0  9994,2 51979  53.2164  61.4138 0001882  81.3741 278.7465 15.08863572 87144,6917.808,95.436,540.975,538.371,0.0
51979.0,STARLINK-3656,PAYLOAD,2023-10-04 16:02:05,15.08867495,0.0001667,53.2167,61.1166,81.9159,278.2022,0.0021672,0.00034398,0.0,0 STARLINK-3656,1 51979U 22025Z   23277.66812374  .00034398  00000-0  21672-2 0  9997,2 51979  53.2167  61.1166 0001667  81.9159 278.2022 15.08867495 88261,6917.796,95.436,540.815,538.508,0.0
51979.0,STARLINK-3656,PAYLOAD,2023-10-05 03:09:47,15.08868282,0.0001919,53.2175,59.0339,86.0948,274.0263,0.0018109,0.00028673,0.0,0 STARLINK-3656,1 51979U 22025Z   23278.13180201  .00028673  00000-0  18109-2 0  9997,2 51979  53.2175  59.0339 0001919  86.0948 274.0263 15.08868282 88334,6917.794,95.436,540.986,538.331,0.0
51979.0,STARLINK-3656,PAYLOAD,2023-10-05 09:31:20,15.08868281,0.000307,53.2168,57.8448,87.9705,272.1638,0.0017022,0.00026929,0.0,0 STARLINK-3656,1 51979U 22025Z   23278.39676444  .00026929  00000-0  17022-2 0  9999,2 51979  53.2168  57.8448 0003070  87.9705 272.1638 15.08868281 88372,6917.794,95.436,541.783,537.535,0.0
51979.0,STARLINK-3656,PAYLOAD,2023-10-05 12:42:06,15.08845674,0.0001563,53.2171,57.2503,91.6169,268.5003,0.0012243,0.00019253,0.0,0 STARLINK-3656,1 51979U 22025Z   23278.52924236  .00019253  00000-0  12243-2 0  9991,2 51979  53.2171  57.2503 0001563  91.6169 268.5003 15.08845674 87288,6917.863,95.437,540.809,538.647,0.0
51979.0,STARLINK-3656,PAYLOAD,2023-10-05 15:52:52,15.088464,0.0001425,53.2177,56.6561,87.2328,272.8827,0.0019636,0.00031106,0.0,0 STARLINK-3656,1 51979U 22025Z   23278.66172346  .00031106  00000-0  19636-2 0  9997,2 51979  53.2177  56.6561 0001425  87.2328 272.8827 15.08846400 88412,6917.861,95.437,540.712,538.74,0.0
51979.0,STARLINK-3656,PAYLOAD,2023-10-05 20:39:02,15.08860221,0.0001457,53.2174,55.7638,86.2366,273.8793,0.0023,0.00036527,0.0,0 STARLINK-3656,1 51979U 22025Z   23278.86044189  .00036527  00000-0  23000-2 0  9994,2 51979  53.2174  55.7638 0001457  86.2366 273.8793 15.08860221 87330,6917.819,95.436,540.692,538.676,0.0
51979.0,STARLINK-3656,PAYLOAD,2023-10-06 09:22:07,15.08841034,0.0001396,53.2173,53.3856,95.093,265.0221,0.0010502,0.00016466,0.0,0 STARLINK-3656,1 51979U 22025Z   23279.39036738  .00016466  00000-0  10502-2 0  9997,2 51979  53.2173  53.3856 0001396  95.0930 265.0221 15.08841034 88524,6917.877,95.437,540.708,538.776,0.0
51979.0,STARLINK-3656,PAYLOAD,2023-10-06 14:08:17,15.08841095,0.0001374,53.218,52.494,91.3725,268.7424,0.00151,0.00023826,0.0,0 STARLINK-3656,1 51979U 22025Z   23279.58908969  .00023826  00000-0  15100-2 0  9999,2 51979  53.2180  52.4940 0001374  91.3725 268.7424 15.08841095 87445,6917.877,95.437,540.693,538.792,0.0
51979.0,STARLINK-3656,PAYLOAD,2023-10-06 15:43:40,15.08843175,0.0001363,53.2181,52.1969,90.8219,269.293,0.0016587,0.00026211,0.0,0 STARLINK-3656,1 51979U 22025Z   23279.65532974  .00026211  00000-0  16587-2 0  9997,2 51979  53.2181  52.1969 0001363  90.8219 269.2930 15.08843175 87454,6917.871,95.437,540.679,538.793,0.0
51979.0,STARLINK-3656,PAYLOAD,2023-10-07 09:12:55,15.08855292,0.0001448,53.2181,48.9254,84.4159,275.6999,0.0017495,0.00027677,0.0,0 STARLINK-3656,1 51979U 22025Z   23280.38397331  .00027677  00000-0  17495-2 0  9991,2 51979  53.2181  48.9254 0001448  84.4159 275.6999 15.08855292 88674,6917.834,95.437,540.7,538.697,0.0
51979.0,STARLINK-3656,PAYLOAD,2023-10-07 13:59:04,15.08845722,0.0001466,53.2186,48.0348,92.864,267.252,0.00050417,7.746e-05,0.0,0 STARLINK-3656,1 51979U 22025Z   23280.58269083  .00007746  00000-0  50417-3 0  9992,2 51979  53.2186  48.0348 0001466  92.8640 267.2520 15.08845722 87596,6917.863,95.437,540.742,538.714,0.0
51979.0,STARLINK-3656,PAYLOAD,2023-10-07 18:45:13,15.08866377,0.0001333,53.2184,47.1406,91.947,268.1675,0.0013372,0.00021073,0.0,0 STARLINK-3656,1 51979U 22025Z   23280.78140735  .00021073  00000-0  13372-2 0  9993,2 51979  53.2184  47.1406 0001333  91.9470 268.1675 15.08866377 87627,6917.8,95.436,540.587,538.743,0.0
51979.0,STARLINK-3656,PAYLOAD,2023-10-08 01:06:46,15.0885852,0.0001235,53.2177,45.9485,82.8006,277.3127,0.00074104,0.00011531,0.0,0 STARLINK-3656,1 51979U 22025Z   23281.04636601  .00011531  00000-0  74104-3 0  9994,2 51979  53.2177  45.9485 0001235  82.8006 277.3127 15.08858520 88779,6917.824,95.436,540.543,538.834,0.0
51979.0,STARLINK-3656,PAYLOAD,2023-10-08 09:03:42,15.08847125,0.0001993,53.2182,44.4668,97.3522,262.7697,0.00049184,7.55e-05,0.0,0 STARLINK-3656,1 51979U 22025Z   23281.37756979  .00007550  00000-0  49184-3 0  9997,2 51979  53.2182  44.4668 0001993  97.3522 262.7697 15.08847125 88822,6917.859,95.437,541.102,538.345,0.0
